KUIPER-00095            
1 65134U 25171C   25253.00793879  .00019530  00000+0  56328-3 0  9999
2 65134  51.8760 262.5606 0004132 254.2484 105.8046 15.35702760  5784
KUIPER-00096            
1 65135U 25171D   25253.06834512  .00120322  00000+0  33405-2 0  9998
2 65135  51.8758 262.2122 0003205 224.7237 135.3491 15.35970897  5791
KUIPER-00097            
1 65136U 25171E   25252.91668981  .00056807  00000+0  16121-2 0  9999
2 65136  51.8750 263.0121 0004070 263.8190 305.2909 15.35656059  4775
KUIPER-00098            
1 65137U 25171F   25253.06132668  .00021027  00000+0  59576-3 0  9993
2 65137  51.8753 262.1758 0004153 229.0095 131.0533 15.36211684  5136
KUIPER-00099            
1 65138U 25171G   25252.99861779  .00019574  00000+0  55553-3 0  9992
2 65138  51.8760 262.5058 0004613 232.7026 127.3540 15.36205915  5774
KUIPER-00100            
1 65139U 25171H   25253.00236760  .00025344  00000+0  72153-3 0  9999
2 65139  51.8748 262.5231 0004339 243.4443 116.6099 15.35946591  5772
KUIPER-00102            
1 65140U 25171J   25253.00821228  .00020614  00000+0  59559-3 0  9990
2 65140  51.8757 262.5591 0003770 252.9645 107.0928 15.35612378  5778
KUIPER-00103            
1 65141U 25171K   25253.00440523  .00023244  00000+0  66354-3 0  9999
2 65141  51.8744 262.5359 0002651 239.1821 120.8905 15.35916569  5774
